{
  "type": "FeatureCollection",
  "features": [
    {
      "type": "Feature",
      "properties": {
        "norad_id": 41434,
        "name": "BEIDOU-2 IGSO-6 (C13)",
        "group": "beidou",
        "lat": -30.29936657017287,
        "lon": -120.27909839028266,
        "alt_km": 35553.838263741025,
        "timestamp": "2025-12-08T05:48:09.299774+00:00",
        "meta_object_name": "BEIDOU-2 IGSO-6 (C13)",
        "meta_object_id": "2016-021A",
        "meta_epoch": "2025-12-01T15:57:35.287200",
        "meta_mean_motion": 1.00256562,
        "meta_eccentricity": 0.00591323,
        "meta_inclination": 59.9483,
        "meta_ra_of_asc_node": 40.0119,
        "meta_arg_of_pericenter": 231.2834,
        "meta_mean_anomaly": 130.8807,
        "meta_ephemeris_type": 0,
        "meta_classification_type": "U",
        "meta_norad_cat_id": 41434,
        "meta_element_set_no": 999,
        "meta_rev_at_epoch": 3550,
        "meta_bstar": 0,
        "meta_mean_motion_dot": -1.55e-06,
        "meta_mean_motion_ddot": 0,
        "tle_line1": "1 41434U 16021A   25335.66499175 -.00000155  00000+0  00000+0 0  9991",
        "tle_line2": "2 41434  59.9483  40.0119 0059132 231.2834 130.8807  1.00256562 35501"
      },
      "geometry": {
        "type": "Point",
        "coordinates": [
          -120.27909839028266,
          -30.29936657017287
        ]
      }
    },
    {
      "type": "Feature",
      "properties": {
        "norad_id": 41586,
        "name": "BEIDOU-2 G7 (C03)",
        "group": "beidou",
        "lat": -0.8135930564261586,
        "lon": -85.27036132683602,
        "alt_km": 35803.67171017987,
        "timestamp": "2025-12-08T05:48:09.299787+00:00",
        "meta_object_name": "BEIDOU-2 G7 (C03)",
        "meta_object_id": "2016-037A",
        "meta_epoch": "2025-12-07T22:43:12.465984",
        "meta_mean_motion": 1.00269482,
        "meta_eccentricity": 0.00044255,
        "meta_inclination": 1.7451,
        "meta_ra_of_asc_node": 67.7531,
        "meta_arg_of_pericenter": 0.5194,
        "meta_mean_anomaly": 99.9683,
        "meta_ephemeris_type": 0,
        "meta_classification_type": "U",
        "meta_norad_cat_id": 41586,
        "meta_element_set_no": 999,
        "meta_rev_at_epoch": 497,
        "meta_bstar": 0,
        "meta_mean_motion_dot": -3.51e-06,
        "meta_mean_motion_ddot": 0,
        "tle_line1": "1 41586U 16037A   25341.94667206 -.00000351  00000+0  00000+0 0  9994",
        "tle_line2": "2 41586   1.7451  67.7531 0004425   0.5194  99.9683  1.00269482  4973"
      },
      "geometry": {
        "type": "Point",
        "coordinates": [
          -85.27036132683602,
          -0.8135930564261586
        ]
      }
    },
    {
      "type": "Feature",
      "properties": {
        "norad_id": 43001,
        "name": "BEIDOU-3 M1 (C19)",
        "group": "beidou",
        "lat": 2.1666287146120657,
        "lon": -112.040413216766,
        "alt_km": 21543.044287221208,
        "timestamp": "2025-12-08T05:48:09.299798+00:00",
        "meta_object_name": "BEIDOU-3 M1 (C19)",
        "meta_object_id": "2017-069A",
        "meta_epoch": "2025-12-07T10:33:38.997216",
        "meta_mean_motion": 1.86230818,
        "meta_eccentricity": 0.00090499,
        "meta_inclination": 56.5227,
        "meta_ra_of_asc_node": 69.4088,
        "meta_arg_of_pericenter": 303.7178,
        "meta_mean_anomaly": 56.2144,
        "meta_ephemeris_type": 0,
        "meta_classification_type": "U",
        "meta_norad_cat_id": 43001,
        "meta_element_set_no": 999,
        "meta_rev_at_epoch": 5503,
        "meta_bstar": 0,
        "meta_mean_motion_dot": -4.4e-07,
        "meta_mean_motion_ddot": 0,
        "tle_line1": "1 43001U 17069A   25341.44003469 -.00000044  00000+0  00000+0 0  9993",
        "tle_line2": "2 43001  56.5227  69.4088 0009049 303.7178  56.2144  1.86230818 55035"
      },
      "geometry": {
        "type": "Point",
        "coordinates": [
          -112.040413216766,
          2.1666287146120657
        ]
      }
    },
    {
      "type": "Feature",
      "properties": {
        "norad_id": 43002,
        "name": "BEIDOU-3 M2 (C20)",
        "group": "beidou",
        "lat": -31.51595055172378,
        "lon": -86.66993847125083,
        "alt_km": 21538.85526671022,
        "timestamp": "2025-12-08T05:48:09.299809+00:00",
        "meta_object_name": "BEIDOU-3 M2 (C20)",
        "meta_object_id": "2017-069B",
        "meta_epoch": "2025-12-07T09:04:52.679136",
        "meta_mean_motion": 1.86230635,
        "meta_eccentricity": 0.00063308,
        "meta_inclination": 56.5218,
        "meta_ra_of_asc_node": 69.4472,
        "meta_arg_of_pericenter": 331.2047,
        "meta_mean_anomaly": 28.7785,
        "meta_ephemeris_type": 0,
        "meta_classification_type": "U",
        "meta_norad_cat_id": 43002,
        "meta_element_set_no": 999,
        "meta_rev_at_epoch": 5502,
        "meta_bstar": 0,
        "meta_mean_motion_dot": -4.4e-07,
        "meta_mean_motion_ddot": 0,
        "tle_line1": "1 43002U 17069B   25341.37838749 -.00000044  00000+0  00000+0 0  9993",
        "tle_line2": "2 43002  56.5218  69.4472 0006330 331.2047  28.7785  1.86230635 55025"
      },
      "geometry": {
        "type": "Point",
        "coordinates": [
          -86.66993847125083,
          -31.51595055172378
        ]
      }
    },
    {
      "type": "Feature",
      "properties": {
        "norad_id": 43107,
        "name": "BEIDOU-3 M7 (C27)",
        "group": "beidou",
        "lat": 24.879248876328212,
        "lon": -31.733847201100506,
        "alt_km": 21518.991706339006,
        "timestamp": "2025-12-08T05:48:09.299820+00:00",
        "meta_object_name": "BEIDOU-3 M7 (C27)",
        "meta_object_id": "2018-003A",
        "meta_epoch": "2025-12-07T02:54:56.285856",
        "meta_mean_motion": 1.86232289,
        "meta_eccentricity": 0.00027014,
        "meta_inclination": 54.5017,
        "meta_ra_of_asc_node": 309.0103,
        "meta_arg_of_pericenter": 69.3468,
        "meta_mean_anomaly": 290.667,
        "meta_ephemeris_type": 0,
        "meta_classification_type": "U",
        "meta_norad_cat_id": 43107,
        "meta_element_set_no": 999,
        "meta_rev_at_epoch": 5377,
        "meta_bstar": 0,
        "meta_mean_motion_dot": -7.2e-07,
        "meta_mean_motion_ddot": 0,
        "tle_line1": "1 43107U 18003A   25341.12148479 -.00000072  00000+0  00000+0 0  9996",
        "tle_line2": "2 43107  54.5017 309.0103 0002701  69.3468 290.6670  1.86232289 53774"
      },
      "geometry": {
        "type": "Point",
        "coordinates": [
          -31.733847201100506,
          24.879248876328212
        ]
      }
    },
    {
      "type": "Feature",
      "properties": {
        "norad_id": 43108,
        "name": "BEIDOU-3 M8 (C28)",
        "group": "beidou",
        "lat": 49.03051540815975,
        "lon": 4.179410332738074,
        "alt_km": 21533.99234006336,
        "timestamp": "2025-12-08T05:48:09.299831+00:00",
        "meta_object_name": "BEIDOU-3 M8 (C28)",
        "meta_object_id": "2018-003B",
        "meta_epoch": "2025-12-07T14:28:44.838336",
        "meta_mean_motion": 1.86230783,
        "meta_eccentricity": 0.00047344,
        "meta_inclination": 54.4942,
        "meta_ra_of_asc_node": 308.9763,
        "meta_arg_of_pericenter": 275.286,
        "meta_mean_anomaly": 84.6457,
        "meta_ephemeris_type": 0,
        "meta_classification_type": "U",
        "meta_norad_cat_id": 43108,
        "meta_element_set_no": 999,
        "meta_rev_at_epoch": 5379,
        "meta_bstar": 0,
        "meta_mean_motion_dot": -7.2e-07,
        "meta_mean_motion_ddot": 0,
        "tle_line1": "1 43108U 18003B   25341.60329674 -.00000072  00000+0  00000+0 0  9998",
        "tle_line2": "2 43108  54.4942 308.9763 0004734 275.2860  84.6457  1.86230783 53796"
      },
      "geometry": {
        "type": "Point",
        "coordinates": [
          4.179410332738074,
          49.03051540815975
        ]
      }
    },
    {
      "type": "Feature",
      "properties": {
        "norad_id": 43207,
        "name": "BEIDOU-3 M4 (C22)",
        "group": "beidou",
        "lat": 38.39624746061653,
        "lon": -142.16736540833853,
        "alt_km": 21528.539014661415,
        "timestamp": "2025-12-08T05:48:09.299843+00:00",
        "meta_object_name": "BEIDOU-3 M4 (C22)",
        "meta_object_id": "2018-018A",
        "meta_epoch": "2025-12-02T03:19:43.852800",
        "meta_mean_motion": 1.86230706,
        "meta_eccentricity": 0.00040749,
        "meta_inclination": 56.4768,
        "meta_ra_of_asc_node": 69.6557,
        "meta_arg_of_pericenter": 15.1369,
        "meta_mean_anomaly": 344.8773,
        "meta_ephemeris_type": 0,
        "meta_classification_type": "U",
        "meta_norad_cat_id": 43207,
        "meta_element_set_no": 999,
        "meta_rev_at_epoch": 5307,
        "meta_bstar": 0,
        "meta_mean_motion_dot": -4.5e-07,
        "meta_mean_motion_ddot": 0,
        "tle_line1": "1 43207U 18018A   25336.13870200 -.00000045  00000+0  00000+0 0  9992",
        "tle_line2": "2 43207  56.4768  69.6557 0004074  15.1369 344.8773  1.86230706 53076"
      },
      "geometry": {
        "type": "Point",
        "coordinates": [
          -142.16736540833853,
          38.39624746061653
        ]
      }
    }
  ]
}